[{"OBJECT_NAME":"INTELSAT 503","OBJECT_ID":"1981-119A","EPOCH":"2026-03-02T00:22:54.146208","MEAN_MOTION":0.99469737,"ECCENTRICITY":0.00480309,"INCLINATION":11.4055,"RA_OF_ASC_NODE":327.7793,"ARG_OF_PERICENTER":268.5472,"MEAN_ANOMALY":281.2713,"EPHEMERIS_TYPE":0,"CLASSIFICATION_TYPE":"U","NORAD_CAT_ID":12994,"ELEMENT_SET_NO":999,"REV_AT_EPOCH":12563,"BSTAR":0,"MEAN_MOTION_DOT":-2.06e-6,"MEAN_MOTION_DDOT":0},{"OBJECT_NAME":"EKRAN 2 DEB","OBJECT_ID":"1977-092J","EPOCH":"2026-03-02T18:05:22.990848","MEAN_MOTION":1.0004783,"ECCENTRICITY":0.0015494,"INCLINATION":4.5794,"RA_OF_ASC_NODE":276.2834,"ARG_OF_PERICENTER":312.1158,"MEAN_ANOMALY":222.3849,"EPHEMERIS_TYPE":0,"CLASSIFICATION_TYPE":"U","NORAD_CAT_ID":12996,"ELEMENT_SET_NO":999,"REV_AT_EPOCH":8344,"BSTAR":0,"MEAN_MOTION_DOT":6.6e-7,"MEAN_MOTION_DDOT":0},{"OBJECT_NAME":"MOLNIYA 1-52","OBJECT_ID":"1981-123A","EPOCH":"2026-03-01T00:49:46.737408","MEAN_MOTION":2.0078336,"ECCENTRICITY":0.74052594,"INCLINATION":61.6637,"RA_OF_ASC_NODE":85.4346,"ARG_OF_PERICENTER":274.408,"MEAN_ANOMALY":12.451,"EPHEMERIS_TYPE":0,"CLASSIFICATION_TYPE":"U","NORAD_CAT_ID":13012,"ELEMENT_SET_NO":999,"REV_AT_EPOCH":32371,"BSTAR":0.00098131899,"MEAN_MOTION_DOT":-1.322e-5,"MEAN_MOTION_DDOT":0},{"OBJECT_NAME":"SATCOM 4","OBJECT_ID":"1982-004A","EPOCH":"2026-03-02T01:44:13.349472","MEAN_MOTION":0.99597624,"ECCENTRICITY":0.0044503,"INCLINATION":12.8923,"RA_OF_ASC_NODE":336.3243,"ARG_OF_PERICENTER":201.9235,"MEAN_ANOMALY":157.9102,"EPHEMERIS_TYPE":0,"CLASSIFICATION_TYPE":"U","NORAD_CAT_ID":13035,"ELEMENT_SET_NO":999,"REV_AT_EPOCH":12414,"BSTAR":0,"MEAN_MOTION_DOT":-3.16e-6,"MEAN_MOTION_DDOT":0},{"OBJECT_NAME":"EKRAN 8","OBJECT_ID":"1982-009A","EPOCH":"2026-03-02T17:48:12.785760","MEAN_MOTION":0.99929876,"ECCENTRICITY":0.0030539,"INCLINATION":7.3075,"RA_OF_ASC_NODE":297.2557,"ARG_OF_PERICENTER":340.4163,"MEAN_ANOMALY":205.8893,"EPHEMERIS_TYPE":0,"CLASSIFICATION_TYPE":"U","NORAD_CAT_ID":13056,"ELEMENT_SET_NO":999,"REV_AT_EPOCH":11755,"BSTAR":0,"MEAN_MOTION_DOT":9.0e-7,"MEAN_MOTION_DDOT":0},{"OBJECT_NAME":"WESTAR 4","OBJECT_ID":"1982-014A","EPOCH":"2026-03-02T02:01:22.204992","MEAN_MOTION":0.99777584,"ECCENTRICITY":0.00059322,"INCLINATION":12.7479,"RA_OF_ASC_NODE":335.7055,"ARG_OF_PERICENTER":310.6356,"MEAN_ANOMALY":240.7797,"EPHEMERIS_TYPE":0,"CLASSIFICATION_TYPE":"U","NORAD_CAT_ID":13069,"ELEMENT_SET_NO":999,"REV_AT_EPOCH":4537,"BSTAR":0,"MEAN_MOTION_DOT":-2.58e-6,"MEAN_MOTION_DDOT":0},{"OBJECT_NAME":"MOLNIYA 1-53","OBJECT_ID":"1982-015A","EPOCH":"2026-03-02T00:50:39.810336","MEAN_MOTION":2.00355536,"ECCENTRICITY":0.7104191,"INCLINATION":63.4285,"RA_OF_ASC_NODE":50.9896,"ARG_OF_PERICENTER":283.819,"MEAN_ANOMALY":11.9791,"EPHEMERIS_TYPE":0,"CLASSIFICATION_TYPE":"U","NORAD_CAT_ID":13070,"ELEMENT_SET_NO":999,"REV_AT_EPOCH":32241,"BSTAR":-0.0015566497,"MEAN_MOTION_DOT":4.34e-6,"MEAN_MOTION_DDOT":0},{"OBJECT_NAME":"SL-6 R/B(2)","OBJECT_ID":"1982-015D","EPOCH":"2026-03-02T18:13:27.343200","MEAN_MOTION":1.98091533,"ECCENTRICITY":0.7038098,"INCLINATION":63.0087,"RA_OF_ASC_NODE":119.6475,"ARG_OF_PERICENTER":277.5326,"MEAN_ANOMALY":14.1648,"EPHEMERIS_TYPE":0,"CLASSIFICATION_TYPE":"U","NORAD_CAT_ID":13075,"ELEMENT_SET_NO":999,"REV_AT_EPOCH":31705,"BSTAR":0,"MEAN_MOTION_DOT":1.286e-5,"MEAN_MOTION_DDOT":0},{"OBJECT_NAME":"SL-6 R/B(2)","OBJECT_ID":"1982-016D","EPOCH":"2026-03-02T01:10:53.369184","MEAN_MOTION":2.0367558,"ECCENTRICITY":0.73224063,"INCLINATION":63.6738,"RA_OF_ASC_NODE":121.0341,"ARG_OF_PERICENTER":358.5507,"MEAN_ANOMALY":0.3361,"EPHEMERIS_TYPE":0,"CLASSIFICATION_TYPE":"U","NORAD_CAT_ID":13090,"ELEMENT_SET_NO":999,"REV_AT_EPOCH":32633,"BSTAR":0.0019952217,"MEAN_MOTION_DOT":-2.21e-6,"MEAN_MOTION_DDOT":0},{"OBJECT_NAME":"INSAT-1A","OBJECT_ID":"1982-031A","EPOCH":"2026-03-02T18:51:51.295104","MEAN_MOTION":1.00365637,"ECCENTRICITY":0.0015677,"INCLINATION":7.3734,"RA_OF_ASC_NODE":299.236,"ARG_OF_PERICENTER":52.1775,"MEAN_ANOMALY":175.334,"EPHEMERIS_TYPE":0,"CLASSIFICATION_TYPE":"U","NORAD_CAT_ID":13129,"ELEMENT_SET_NO":999,"REV_AT_EPOCH":16536,"BSTAR":0,"MEAN_MOTION_DOT":-2.11e-6,"MEAN_MOTION_DDOT":0},{"OBJECT_NAME":"COSMOS 1366","OBJECT_ID":"1982-044A","EPOCH":"2026-03-02T16:11:11.595264","MEAN_MOTION":1.00288901,"ECCENTRICITY":0.0007749,"INCLINATION":8.5431,"RA_OF_ASC_NODE":298.2809,"ARG_OF_PERICENTER":110.9774,"MEAN_ANOMALY":69.7574,"EPHEMERIS_TYPE":0,"CLASSIFICATION_TYPE":"U","NORAD_CAT_ID":13177,"ELEMENT_SET_NO":999,"REV_AT_EPOCH":13254,"BSTAR":0,"MEAN_MOTION_DOT":-1.23e-6,"MEAN_MOTION_DDOT":0},{"OBJECT_NAME":"COSMOS 1382","OBJECT_ID":"1982-064A","EPOCH":"2026-02-15T05:08:03.365376","MEAN_MOTION":2.00446671,"ECCENTRICITY":0.72306301,"INCLINATION":61.9976,"RA_OF_ASC_NODE":161.2599,"ARG_OF_PERICENTER":41.8623,"MEAN_ANOMALY":354.8334,"EPHEMERIS_TYPE":0,"CLASSIFICATION_TYPE":"U","NORAD_CAT_ID":13295,"ELEMENT_SET_NO":999,"REV_AT_EPOCH":27811,"BSTAR":0,"MEAN_MOTION_DOT":-1.089e-5,"MEAN_MOTION_DDOT":0},{"OBJECT_NAME":"SL-6 R/B(2)","OBJECT_ID":"1982-064D","EPOCH":"2026-03-02T04:18:48.089664","MEAN_MOTION":2.03267452,"ECCENTRICITY":0.6397157,"INCLINATION":66.959,"RA_OF_ASC_NODE":85.5756,"ARG_OF_PERICENTER":9.7454,"MEAN_ANOMALY":358.4789,"EPHEMERIS_TYPE":0,"CLASSIFICATION_TYPE":"U","NORAD_CAT_ID":13298,"ELEMENT_SET_NO":999,"REV_AT_EPOCH":24744,"BSTAR":0,"MEAN_MOTION_DOT":4.47e-6,"MEAN_MOTION_DDOT":0},{"OBJECT_NAME":"ANIK D1 (TELESAT 6)","OBJECT_ID":"1982-082A","EPOCH":"2026-03-02T13:08:06.644832","MEAN_MOTION":1.00143086,"ECCENTRICITY":0.0008382,"INCLINATION":12.3286,"RA_OF_ASC_NODE":333.6555,"ARG_OF_PERICENTER":340.0045,"MEAN_ANOMALY":197.702,"EPHEMERIS_TYPE":0,"CLASSIFICATION_TYPE":"U","NORAD_CAT_ID":13431,"ELEMENT_SET_NO":999,"REV_AT_EPOCH":4553,"BSTAR":0,"MEAN_MOTION_DOT":-2.19e-6,"MEAN_MOTION_DDOT":0},{"OBJECT_NAME":"EKRAN 9","OBJECT_ID":"1982-093A","EPOCH":"2026-03-02T15:06:37.152288","MEAN_MOTION":1.00261276,"ECCENTRICITY":0.0028133,"INCLINATION":7.3243,"RA_OF_ASC_NODE":300.4338,"ARG_OF_PERICENTER":7.7146,"MEAN_ANOMALY":183.2142,"EPHEMERIS_TYPE":0,"CLASSIFICATION_TYPE":"U","NORAD_CAT_ID":13554,"ELEMENT_SET_NO":999,"REV_AT_EPOCH":11893,"BSTAR":0,"MEAN_MOTION_DOT":-3.49e-6,"MEAN_MOTION_DDOT":0},{"OBJECT_NAME":"GORIZONT 6","OBJECT_ID":"1982-103A","EPOCH":"2026-03-02T11:36:25.494624","MEAN_MOTION":1.00257048,"ECCENTRICITY":0.00033745,"INCLINATION":7.5711,"RA_OF_ASC_NODE":302.6436,"ARG_OF_PERICENTER":352.9275,"MEAN_ANOMALY":228.1487,"EPHEMERIS_TYPE":0,"CLASSIFICATION_TYPE":"U","NORAD_CAT_ID":13624,"ELEMENT_SET_NO":999,"REV_AT_EPOCH":11987,"BSTAR":0,"MEAN_MOTION_DOT":7.5e-7,"MEAN_MOTION_DDOT":0},{"OBJECT_NAME":"SL-12 R/B(2)","OBJECT_ID":"1982-103E","EPOCH":"2026-03-02T14:18:38.856384","MEAN_MOTION":1.0036094,"ECCENTRICITY":0.0010583,"INCLINATION":7.5311,"RA_OF_ASC_NODE":302.5209,"ARG_OF_PERICENTER":190.4777,"MEAN_ANOMALY":8.5061,"EPHEMERIS_TYPE":0,"CLASSIFICATION_TYPE":"U","NORAD_CAT_ID":13630,"ELEMENT_SET_NO":999,"REV_AT_EPOCH":12043,"BSTAR":0,"MEAN_MOTION_DOT":-3.66e-6,"MEAN_MOTION_DDOT":0},{"OBJECT_NAME":"SATCOM C5","OBJECT_ID":"1982-105A","EPOCH":"2026-03-02T11:58:40.094688","MEAN_MOTION":1.00273001,"ECCENTRICITY":0.00061843,"INCLINATION":12.2188,"RA_OF_ASC_NODE":333.2204,"ARG_OF_PERICENTER":15.9669,"MEAN_ANOMALY":244.5738,"EPHEMERIS_TYPE":0,"CLASSIFICATION_TYPE":"U","NORAD_CAT_ID":13631,"ELEMENT_SET_NO":999,"REV_AT_EPOCH":12530,"BSTAR":0,"MEAN_MOTION_DOT":-1.12e-6,"MEAN_MOTION_DDOT":0},{"OBJECT_NAME":"TITAN 34D IUS R/B(2)","OBJECT_ID":"1982-106D","EPOCH":"2026-03-02T01:55:45.244128","MEAN_MOTION":0.99383913,"ECCENTRICITY":0.00403644,"INCLINATION":9.5789,"RA_OF_ASC_NODE":310.9379,"ARG_OF_PERICENTER":64.6916,"MEAN_ANOMALY":129.845,"EPHEMERIS_TYPE":0,"CLASSIFICATION_TYPE":"U","NORAD_CAT_ID":13643,"ELEMENT_SET_NO":999,"REV_AT_EPOCH":11869,"BSTAR":0,"MEAN_MOTION_DOT":-2.79e-6,"MEAN_MOTION_DDOT":0},{"OBJECT_NAME":"SBS 3","OBJECT_ID":"1982-110B","EPOCH":"2026-03-02T11:19:05.993760","MEAN_MOTION":0.99926658,"ECCENTRICITY":0.00047227,"INCLINATION":12.6151,"RA_OF_ASC_NODE":335.1185,"ARG_OF_PERICENTER":99.3907,"MEAN_ANOMALY":112.9331,"EPHEMERIS_TYPE":0,"CLASSIFICATION_TYPE":"U","NORAD_CAT_ID":13651,"ELEMENT_SET_NO":999,"REV_AT_EPOCH":4547,"BSTAR":0,"MEAN_MOTION_DOT":9.0e-7,"MEAN_MOTION_DDOT":0},{"OBJECT_NAME":"ANIK C3 (TELESAT 5)","OBJECT_ID":"1982-110C","EPOCH":"2026-03-02T16:57:38.525760","MEAN_MOTION":0.99901278,"ECCENTRICITY":0.0002321,"INCLINATION":12.5901,"RA_OF_ASC_NODE":334.9263,"ARG_OF_PERICENTER":345.3494,"MEAN_ANOMALY":199.7389,"EPHEMERIS_TYPE":0,"CLASSIFICATION_TYPE":"U","NORAD_CAT_ID":13652,"ELEMENT_SET_NO":999,"REV_AT_EPOCH":4544,"BSTAR":0,"MEAN_MOTION_DOT":-2.98e-6,"MEAN_MOTION_DDOT":0},{"OBJECT_NAME":"SAKURA-2A (CS-2A)","OBJECT_ID":"1983-006A","EPOCH":"2026-03-02T08:29:00.201984","MEAN_MOTION":0.99407325,"ECCENTRICITY":0.0013138,"INCLINATION":10.4611,"RA_OF_ASC_NODE":321.1426,"ARG_OF_PERICENTER":331.3576,"MEAN_ANOMALY":304.6305,"EPHEMERIS_TYPE":0,"CLASSIFICATION_TYPE":"U","NORAD_CAT_ID":13782,"ELEMENT_SET_NO":999,"REV_AT_EPOCH":12678,"BSTAR":0,"MEAN_MOTION_DOT":-2.69e-6,"MEAN_MOTION_DDOT":0},{"OBJECT_NAME":"MOLNIYA 3-20","OBJECT_ID":"1983-015A","EPOCH":"2026-03-01T18:07:09.662880","MEAN_MOTION":2.00461748,"ECCENTRICITY":0.70862979,"INCLINATION":61.9503,"RA_OF_ASC_NODE":160.0478,"ARG_OF_PERICENTER":270.8266,"MEAN_ANOMALY":15.9663,"EPHEMERIS_TYPE":0,"CLASSIFICATION_TYPE":"U","NORAD_CAT_ID":13875,"ELEMENT_SET_NO":999,"REV_AT_EPOCH":25086,"BSTAR":0,"MEAN_MOTION_DOT":-7.76e-6,"MEAN_MOTION_DDOT":0},{"OBJECT_NAME":"SL-6 R/B(2)","OBJECT_ID":"1983-015E","EPOCH":"2026-02-28T05:47:35.311488","MEAN_MOTION":1.96896883,"ECCENTRICITY":0.723452,"INCLINATION":62.0447,"RA_OF_ASC_NODE":235.3369,"ARG_OF_PERICENTER":268.5188,"MEAN_ANOMALY":15.4939,"EPHEMERIS_TYPE":0,"CLASSIFICATION_TYPE":"U","NORAD_CAT_ID":13882,"ELEMENT_SET_NO":999,"REV_AT_EPOCH":30880,"BSTAR":-0.0024329,"MEAN_MOTION_DOT":-3.47e-6,"MEAN_MOTION_DDOT":0}]
